{
  "type": "FeatureCollection",
  "features": [
    {
      "type": "Feature",
      "properties": {
        "norad_id": 67088,
        "name": "STARLINK-35882",
        "group": "last-30-days",
        "lat": 69.91282178467145,
        "lon": -46.89440885960704,
        "alt_km": 309.4788191583093,
        "timestamp": "2025-12-23T22:42:31.704546+00:00",
        "meta_object_name": "STARLINK-35882",
        "meta_object_id": "2025-298P",
        "meta_epoch": "2025-12-23T06:00:00.999648",
        "meta_mean_motion": 15.88199045,
        "meta_eccentricity": 0.00037515,
        "meta_inclination": 69.9964,
        "meta_ra_of_asc_node": 220.1247,
        "meta_arg_of_pericenter": 273.6256,
        "meta_mean_anomaly": 162.1963,
        "meta_ephemeris_type": 0,
        "meta_classification_type": "U",
        "meta_norad_cat_id": 67088,
        "meta_element_set_no": 999,
        "meta_rev_at_epoch": 266,
        "meta_bstar": -0.0073276916,
        "meta_mean_motion_dot": -0.0174728,
        "meta_mean_motion_ddot": 0,
        "tle_line1": "1 67088U 25298P   25357.25001157 -.01747280  00000+0 -73277-2 0  9996",
        "tle_line2": "2 67088  69.9964 220.1247 0003751 273.6256 162.1963 15.88199045  2661"
      },
      "geometry": {
        "type": "Point",
        "coordinates": [
          -46.89440885960704,
          69.91282178467145
        ]
      }
    },
    {
      "type": "Feature",
      "properties": {
        "norad_id": 67089,
        "name": "STARLINK-35763",
        "group": "last-30-days",
        "lat": 69.61833010302364,
        "lon": -40.57125923278658,
        "alt_km": 309.6504539056714,
        "timestamp": "2025-12-23T22:42:31.704556+00:00",
        "meta_object_name": "STARLINK-35763",
        "meta_object_id": "2025-298Q",
        "meta_epoch": "2025-12-23T06:00:00.999648",
        "meta_mean_motion": 15.88192194,
        "meta_eccentricity": 0.00039243,
        "meta_inclination": 69.9962,
        "meta_ra_of_asc_node": 220.1219,
        "meta_arg_of_pericenter": 275.5746,
        "meta_mean_anomaly": 162.4683,
        "meta_ephemeris_type": 0,
        "meta_classification_type": "U",
        "meta_norad_cat_id": 67089,
        "meta_element_set_no": 999,
        "meta_rev_at_epoch": 266,
        "meta_bstar": -0.0073331507,
        "meta_mean_motion_dot": -0.01748122,
        "meta_mean_motion_ddot": 0,
        "tle_line1": "1 67089U 25298Q   25357.25001157 -.01748122  00000+0 -73332-2 0  9995",
        "tle_line2": "2 67089  69.9962 220.1219 0003924 275.5746 162.4683 15.88192194  2666"
      },
      "geometry": {
        "type": "Point",
        "coordinates": [
          -40.57125923278658,
          69.61833010302364
        ]
      }
    },
    {
      "type": "Feature",
      "properties": {
        "norad_id": 67090,
        "name": "STARLINK-36060",
        "group": "last-30-days",
        "lat": 69.19977326855314,
        "lon": -35.43742109539866,
        "alt_km": 309.64092219263785,
        "timestamp": "2025-12-23T22:42:31.704566+00:00",
        "meta_object_name": "STARLINK-36060",
        "meta_object_id": "2025-298R",
        "meta_epoch": "2025-12-23T06:00:00.999648",
        "meta_mean_motion": 15.88194252,
        "meta_eccentricity": 0.00038792,
        "meta_inclination": 69.9958,
        "meta_ra_of_asc_node": 220.1197,
        "meta_arg_of_pericenter": 273.8355,
        "meta_mean_anomaly": 166.0529,
        "meta_ephemeris_type": 0,
        "meta_classification_type": "U",
        "meta_norad_cat_id": 67090,
        "meta_element_set_no": 999,
        "meta_rev_at_epoch": 260,
        "meta_bstar": -0.0073277871,
        "meta_mean_motion_dot": -0.01747112,
        "meta_mean_motion_ddot": 0,
        "tle_line1": "1 67090U 25298R   25357.25001157 -.01747112  00000+0 -73278-2 0  9994",
        "tle_line2": "2 67090  69.9958 220.1197 0003879 273.8355 166.0529 15.88194252  2604"
      },
      "geometry": {
        "type": "Point",
        "coordinates": [
          -35.43742109539866,
          69.19977326855314
        ]
      }
    },
    {
      "type": "Feature",
      "properties": {
        "norad_id": 67091,
        "name": "STARLINK-36097",
        "group": "last-30-days",
        "lat": 68.52491980924928,
        "lon": -29.716313762186022,
        "alt_km": 309.5888801855008,
        "timestamp": "2025-12-23T22:42:31.704577+00:00",
        "meta_object_name": "STARLINK-36097",
        "meta_object_id": "2025-298S",
        "meta_epoch": "2025-12-23T06:00:00.999648",
        "meta_mean_motion": 15.88182144,
        "meta_eccentricity": 0.00037162,
        "meta_inclination": 69.9961,
        "meta_ra_of_asc_node": 220.117,
        "meta_arg_of_pericenter": 274.0569,
        "meta_mean_anomaly": 168.0184,
        "meta_ephemeris_type": 0,
        "meta_classification_type": "U",
        "meta_norad_cat_id": 67091,
        "meta_element_set_no": 999,
        "meta_rev_at_epoch": 266,
        "meta_bstar": -0.0073071268,
        "meta_mean_motion_dot": -0.01741717,
        "meta_mean_motion_ddot": 0,
        "tle_line1": "1 67091U 25298S   25357.25001157 -.01741717  00000+0 -73071-2 0  9991",
        "tle_line2": "2 67091  69.9961 220.1170 0003716 274.0569 168.0184 15.88182144  2662"
      },
      "geometry": {
        "type": "Point",
        "coordinates": [
          -29.716313762186022,
          68.52491980924928
        ]
      }
    },
    {
      "type": "Feature",
      "properties": {
        "norad_id": 67092,
        "name": "STARLINK-35792",
        "group": "last-30-days",
        "lat": 67.80178300027795,
        "lon": -25.12071442576227,
        "alt_km": 309.75201492079304,
        "timestamp": "2025-12-23T22:42:31.704587+00:00",
        "meta_object_name": "STARLINK-35792",
        "meta_object_id": "2025-298T",
        "meta_epoch": "2025-12-23T06:00:00.999648",
        "meta_mean_motion": 15.88189436,
        "meta_eccentricity": 0.00038418,
        "meta_inclination": 69.9959,
        "meta_ra_of_asc_node": 220.1148,
        "meta_arg_of_pericenter": 276.1461,
        "meta_mean_anomaly": 167.777,
        "meta_ephemeris_type": 0,
        "meta_classification_type": "U",
        "meta_norad_cat_id": 67092,
        "meta_element_set_no": 999,
        "meta_rev_at_epoch": 260,
        "meta_bstar": -0.0073351941,
        "meta_mean_motion_dot": -0.0174822,
        "meta_mean_motion_ddot": 0,
        "tle_line1": "1 67092U 25298T   25357.25001157 -.01748220  00000+0 -73352-2 0  9990",
        "tle_line2": "2 67092  69.9959 220.1148 0003841 276.1461 167.7770 15.88189436  2600"
      },
      "geometry": {
        "type": "Point",
        "coordinates": [
          -25.12071442576227,
          67.80178300027795
        ]
      }
    },
    {
      "type": "Feature",
      "properties": {
        "norad_id": 67093,
        "name": "STARLINK-35784",
        "group": "last-30-days",
        "lat": 66.89171586194968,
        "lon": -20.521144881834548,
        "alt_km": 309.86444473661686,
        "timestamp": "2025-12-23T22:42:31.704597+00:00",
        "meta_object_name": "STARLINK-35784",
        "meta_object_id": "2025-298U",
        "meta_epoch": "2025-12-23T06:00:00.999648",
        "meta_mean_motion": 15.88189978,
        "meta_eccentricity": 0.00038778,
        "meta_inclination": 69.9958,
        "meta_ra_of_asc_node": 220.1121,
        "meta_arg_of_pericenter": 275.3296,
        "meta_mean_anomaly": 170.5904,
        "meta_ephemeris_type": 0,
        "meta_classification_type": "U",
        "meta_norad_cat_id": 67093,
        "meta_element_set_no": 999,
        "meta_rev_at_epoch": 266,
        "meta_bstar": -0.0073532433,
        "meta_mean_motion_dot": -0.01752025,
        "meta_mean_motion_ddot": 0,
        "tle_line1": "1 67093U 25298U   25357.25001157 -.01752025  00000+0 -73532-2 0  9999",
        "tle_line2": "2 67093  69.9958 220.1121 0003877 275.3296 170.5904 15.88189978  2665"
      },
      "geometry": {
        "type": "Point",
        "coordinates": [
          -20.521144881834548,
          66.89171586194968
        ]
      }
    },
    {
      "type": "Feature",
      "properties": {
        "norad_id": 67094,
        "name": "STARLINK-36202",
        "group": "last-30-days",
        "lat": 65.74498626887326,
        "lon": -15.853352784738822,
        "alt_km": 310.13732812898434,
        "timestamp": "2025-12-23T22:42:31.704607+00:00",
        "meta_object_name": "STARLINK-36202",
        "meta_object_id": "2025-298V",
        "meta_epoch": "2025-12-23T06:00:00.999648",
        "meta_mean_motion": 15.88189301,
        "meta_eccentricity": 0.0004071,
        "meta_inclination": 69.9958,
        "meta_ra_of_asc_node": 220.1096,
        "meta_arg_of_pericenter": 274.7805,
        "meta_mean_anomaly": 173.3575,
        "meta_ephemeris_type": 0,
        "meta_classification_type": "U",
        "meta_norad_cat_id": 67094,
        "meta_element_set_no": 999,
        "meta_rev_at_epoch": 266,
        "meta_bstar": -0.0073990529,
        "meta_mean_motion_dot": -0.01761659,
        "meta_mean_motion_ddot": 0,
        "tle_line1": "1 67094U 25298V   25357.25001157 -.01761659  00000+0 -73991-2 0  9992",
        "tle_line2": "2 67094  69.9958 220.1096 0004071 274.7805 173.3575 15.88189301  2668"
      },
      "geometry": {
        "type": "Point",
        "coordinates": [
          -15.853352784738822,
          65.74498626887326
        ]
      }
    }
  ]
}